{
  "type": "FeatureCollection",
  "features": [
    {
      "type": "Feature",
      "properties": {
        "norad_id": 66588,
        "name": "STARLINK-36076",
        "group": "last-30-days",
        "lat": 16.60723556107059,
        "lon": -51.23971143461329,
        "alt_km": 441.8884146122882,
        "timestamp": "2025-12-20T14:38:00.687246+00:00",
        "meta_object_name": "STARLINK-36076",
        "meta_object_id": "2025-270A",
        "meta_epoch": "2025-12-19T19:17:34.645344",
        "meta_mean_motion": 15.4070464,
        "meta_eccentricity": 0.00021308,
        "meta_inclination": 42.9989,
        "meta_ra_of_asc_node": 152.0729,
        "meta_arg_of_pericenter": 265.6518,
        "meta_mean_anomaly": 94.4095,
        "meta_ephemeris_type": 0,
        "meta_classification_type": "U",
        "meta_norad_cat_id": 66588,
        "meta_element_set_no": 999,
        "meta_rev_at_epoch": 543,
        "meta_bstar": 0.00072750808,
        "meta_mean_motion_dot": 0.00030212,
        "meta_mean_motion_ddot": 0,
        "tle_line1": "1 66588U 25270A   25353.80387321  .00030212  00000+0  72751-3 0  9991",
        "tle_line2": "2 66588  42.9989 152.0729 0002130 265.6518  94.4095 15.40704640  5435"
      },
      "geometry": {
        "type": "Point",
        "coordinates": [
          -51.23971143461329,
          16.60723556107059
        ]
      }
    },
    {
      "type": "Feature",
      "properties": {
        "norad_id": 66589,
        "name": "STARLINK-35447",
        "group": "last-30-days",
        "lat": -41.09623952642185,
        "lon": 36.585061890095375,
        "alt_km": 446.4246774288049,
        "timestamp": "2025-12-20T14:38:00.687259+00:00",
        "meta_object_name": "STARLINK-35447",
        "meta_object_id": "2025-270B",
        "meta_epoch": "2025-12-20T00:00:02.000160",
        "meta_mean_motion": 15.40681269,
        "meta_eccentricity": 0.0001453,
        "meta_inclination": 42.9997,
        "meta_ra_of_asc_node": 150.7032,
        "meta_arg_of_pericenter": 283.5937,
        "meta_mean_anomaly": 185.2289,
        "meta_ephemeris_type": 0,
        "meta_classification_type": "U",
        "meta_norad_cat_id": 66589,
        "meta_element_set_no": 999,
        "meta_rev_at_epoch": 567,
        "meta_bstar": 0.00095922,
        "meta_mean_motion_dot": 0.0003995,
        "meta_mean_motion_ddot": 0,
        "tle_line1": "1 66589U 25270B   25354.00002315  .00039950  00000+0  95922-3 0  9995",
        "tle_line2": "2 66589  42.9997 150.7032 0001453 283.5937 185.2289 15.40681269  5679"
      },
      "geometry": {
        "type": "Point",
        "coordinates": [
          36.585061890095375,
          -41.09623952642185
        ]
      }
    },
    {
      "type": "Feature",
      "properties": {
        "norad_id": 66590,
        "name": "STARLINK-35429",
        "group": "last-30-days",
        "lat": -12.427315513526052,
        "lon": 133.29900586691025,
        "alt_km": 444.78263206860265,
        "timestamp": "2025-12-20T14:38:00.687270+00:00",
        "meta_object_name": "STARLINK-35429",
        "meta_object_id": "2025-270C",
        "meta_epoch": "2025-12-20T06:00:02.999808",
        "meta_mean_motion": 15.40685734,
        "meta_eccentricity": 0.00017075,
        "meta_inclination": 43.0002,
        "meta_ra_of_asc_node": 149.051,
        "meta_arg_of_pericenter": 273.5797,
        "meta_mean_anomaly": 230.6619,
        "meta_ephemeris_type": 0,
        "meta_classification_type": "U",
        "meta_norad_cat_id": 66590,
        "meta_element_set_no": 999,
        "meta_rev_at_epoch": 571,
        "meta_bstar": 0.00064829241,
        "meta_mean_motion_dot": 0.0002686,
        "meta_mean_motion_ddot": 0,
        "tle_line1": "1 66590U 25270C   25354.25003472  .00026860  00000+0  64829-3 0  9997",
        "tle_line2": "2 66590  43.0002 149.0510 0001707 273.5797 230.6619 15.40685734  5715"
      },
      "geometry": {
        "type": "Point",
        "coordinates": [
          133.29900586691025,
          -12.427315513526052
        ]
      }
    },
    {
      "type": "Feature",
      "properties": {
        "norad_id": 66591,
        "name": "STARLINK-36058",
        "group": "last-30-days",
        "lat": 39.19251173581043,
        "lon": -152.18934908397202,
        "alt_km": 434.93652042763006,
        "timestamp": "2025-12-20T14:38:00.687281+00:00",
        "meta_object_name": "STARLINK-36058",
        "meta_object_id": "2025-270D",
        "meta_epoch": "2025-12-20T06:00:02.999808",
        "meta_mean_motion": 15.43940024,
        "meta_eccentricity": 0.00013207,
        "meta_inclination": 43.0001,
        "meta_ra_of_asc_node": 148.8476,
        "meta_arg_of_pericenter": 244.8577,
        "meta_mean_anomaly": 342.7195,
        "meta_ephemeris_type": 0,
        "meta_classification_type": "U",
        "meta_norad_cat_id": 66591,
        "meta_element_set_no": 999,
        "meta_rev_at_epoch": 560,
        "meta_bstar": -0.057607772,
        "meta_mean_motion_dot": -0.02387381,
        "meta_mean_motion_ddot": 0,
        "tle_line1": "1 66591U 25270D   25354.25003472 -.02387381  00000+0 -57608-1 0  9995",
        "tle_line2": "2 66591  43.0001 148.8476 0001320 244.8577 342.7195 15.43940024  5602"
      },
      "geometry": {
        "type": "Point",
        "coordinates": [
          -152.18934908397202,
          39.19251173581043
        ]
      }
    },
    {
      "type": "Feature",
      "properties": {
        "norad_id": 66592,
        "name": "STARLINK-36066",
        "group": "last-30-days",
        "lat": -16.908852444547126,
        "lon": -13.654177264541532,
        "alt_km": 445.2075907250537,
        "timestamp": "2025-12-20T14:38:00.687291+00:00",
        "meta_object_name": "STARLINK-36066",
        "meta_object_id": "2025-270E",
        "meta_epoch": "2025-12-19T03:31:08.236704",
        "meta_mean_motion": 15.40718174,
        "meta_eccentricity": 0.00012951,
        "meta_inclination": 42.9987,
        "meta_ra_of_asc_node": 155.7395,
        "meta_arg_of_pericenter": 272.062,
        "meta_mean_anomaly": 88.0088,
        "meta_ephemeris_type": 0,
        "meta_classification_type": "U",
        "meta_norad_cat_id": 66592,
        "meta_element_set_no": 999,
        "meta_rev_at_epoch": 523,
        "meta_bstar": 0.00069686524,
        "meta_mean_motion_dot": 0.00028934,
        "meta_mean_motion_ddot": 0,
        "tle_line1": "1 66592U 25270E   25353.14662311  .00028934  00000+0  69687-3 0  9990",
        "tle_line2": "2 66592  42.9987 155.7395 0001295 272.0620  88.0088 15.40718174  5230"
      },
      "geometry": {
        "type": "Point",
        "coordinates": [
          -13.654177264541532,
          -16.908852444547126
        ]
      }
    },
    {
      "type": "Feature",
      "properties": {
        "norad_id": 66593,
        "name": "STARLINK-36031",
        "group": "last-30-days",
        "lat": -39.23788450604876,
        "lon": 85.88511528193057,
        "alt_km": 446.05100129621496,
        "timestamp": "2025-12-20T14:38:00.687304+00:00",
        "meta_object_name": "STARLINK-36031",
        "meta_object_id": "2025-270F",
        "meta_epoch": "2025-12-20T00:00:02.000160",
        "meta_mean_motion": 15.4068271,
        "meta_eccentricity": 0.0001727,
        "meta_inclination": 42.9996,
        "meta_ra_of_asc_node": 150.6127,
        "meta_arg_of_pericenter": 270.7135,
        "meta_mean_anomaly": 235.4296,
        "meta_ephemeris_type": 0,
        "meta_classification_type": "U",
        "meta_norad_cat_id": 66593,
        "meta_element_set_no": 999,
        "meta_rev_at_epoch": 556,
        "meta_bstar": 0.0009194,
        "meta_mean_motion_dot": 0.00038273,
        "meta_mean_motion_ddot": 0,
        "tle_line1": "1 66593U 25270F   25354.00002315  .00038273  00000+0  91940-3 0  9993",
        "tle_line2": "2 66593  42.9996 150.6127 0001727 270.7135 235.4296 15.40682710  5565"
      },
      "geometry": {
        "type": "Point",
        "coordinates": [
          85.88511528193057,
          -39.23788450604876
        ]
      }
    },
    {
      "type": "Feature",
      "properties": {
        "norad_id": 66594,
        "name": "STARLINK-36032",
        "group": "last-30-days",
        "lat": 20.72951789000915,
        "lon": 170.8180611579518,
        "alt_km": 441.61698027345665,
        "timestamp": "2025-12-20T14:38:00.687314+00:00",
        "meta_object_name": "STARLINK-36032",
        "meta_object_id": "2025-270G",
        "meta_epoch": "2025-12-20T06:00:02.999808",
        "meta_mean_motion": 15.40665364,
        "meta_eccentricity": 0.00015925,
        "meta_inclination": 42.9997,
        "meta_ra_of_asc_node": 148.9288,
        "meta_arg_of_pericenter": 250.3859,
        "meta_mean_anomaly": 303.5533,
        "meta_ephemeris_type": 0,
        "meta_classification_type": "U",
        "meta_norad_cat_id": 66594,
        "meta_element_set_no": 999,
        "meta_rev_at_epoch": 534,
        "meta_bstar": 0.0007085261,
        "meta_mean_motion_dot": 0.00029373,
        "meta_mean_motion_ddot": 0,
        "tle_line1": "1 66594U 25270G   25354.25003472  .00029373  00000+0  70853-3 0  9997",
        "tle_line2": "2 66594  42.9997 148.9288 0001592 250.3859 303.5533 15.40665364  5345"
      },
      "geometry": {
        "type": "Point",
        "coordinates": [
          170.8180611579518,
          20.72951789000915
        ]
      }
    }
  ]
}